#dP2021 10 21  0  0  0.00000000      96 __u+U ITR00 FIT  IAC
## 2180 345600.00000000   900.00000000 59508 0.0000000000000
+  114   C06C07C08C09C10C11C12C13C14C16C19C20C21C22C23C24C25
+        C26C27C28C29C30C32C33C34C35C36C37C38C39C40C41C42C43
+        C44C45C46E01E02E03E04E05E07E08E09E11E12E13E14E15E18
+        E19E21E24E25E26E27E30E31E33E36G01G02G03G04G05G06G07
+        G08G09G10G11G12G13G14G15G16G17G18G19G20G21G22G23G24
+        G25G26G27G28G29G30G31G32R01R02R03R04R05R07R08R09R11
+        R12R13R14R15R16R17R18R19R20R21R22R24  0  0  0  0  0
++         8  9  9  5  8  8  8  9  7  7  7  8  7  7  6  7  6
++         7  8  7  6  7  6  7  6  7  6  7  7  8  8  7  9  7
++         7  7  7  6  7  4  6  5  6  8  8  7  8  6  6  7  8
++         8  8  8  6  7  7  6  6  6  7  7  7  7  5  6  6  6
++         7  6  7  6  7  6  6  6  6  7  7  7  7  6  6  6  6
++         7  7  6  6  7  7  8  5  6  6  7  6  5  6  7  7  7
++         7  6  7  7  7  8  6  7  7  6  9  6  0  0  0  0  0
%c M  cc GPS ccc cccc cccc cccc cccc ccccc ccccc ccccc ccccc
%c cc cc ccc ccc cccc cccc cccc cccc ccccc ccccc ccccc ccccc
%f  0.0000000  0.000000000  0.00000000000  0.000000000000000
%f  0.0000000  0.000000000  0.00000000000  0.000000000000000
%i    0    0    0    0      0      0      0      0         0
%i    0    0    0    0      0      0      0      0         0
/* INFORMATION & ANALYSIS CENTER (IAC)      ULTRA-RAPID DATA
/* S/V CLOCKS ARE ALIGNED TO GNSS TIME                      
/* G:C1WC2W R:C1PC2P E:C1XC5X C:C2IC6I J:C1CC2S             
/* PCV:IGS14_2163 OL/AL:FES2004  NONE     YN ORB:CoN CLK:CoN
*  2021 10 21  9  0  0.00000000
PC06  -7975.142946  23395.728384  34140.457512    367.338178
PC07 -17568.419872  36955.856359 -10448.282523   -239.029728
PC08   -516.090975  36605.662459 -20785.239585   -844.054484
PC09   1738.360111  25594.300755  33836.389582   -201.666688
PC10 -11024.478477  37229.785871 -16745.326152      7.987521
PC11  16646.769667  -9092.975211  20517.666133    643.563967
PC12  26889.307771   2974.194484   6822.307136    735.925853
PC13   4193.076054  39125.973605 -14620.539812    449.177838
PC14  19707.970268 -19717.167971    150.152863    574.844356
PC16 -12223.881318  21651.588113  34154.820635   -755.100679
PC19 -13482.009445  22641.950833   9218.189959    945.871729
PC20 -22302.715950  14911.233974  -7722.323915   -792.216753
PC21  18220.834915   2282.814675  21014.276195   -932.242319
PC22   3420.047590  17551.500771  21421.237281   -959.800746
PC23  -9050.023294 -26240.458856   2923.236216   -972.769694
PC24  14905.052324  -6903.288845 -22563.869029   -972.856732
PC25   3022.122494 -24248.638441 -13500.852595   -836.778652
PC26  17158.886900  12102.126311 -18369.008097    833.125776
PC27 -26288.534435  -9076.947245   2218.967224    616.635385
PC28 -13616.270386 -16648.478841  17792.437147    -12.310360
PC29  -6517.079747  14679.528675 -22825.332749    463.427446
PC30 -23717.434228   4243.821090 -14069.545336    484.080509
PC32 -18218.319254  -2194.377066 -21020.141159   -970.676038
PC33  13416.113402 -22703.107540  -9114.401659   -968.879246
PC34  23240.746048  -4786.618884  14693.383261   -554.982281
PC35  13760.831556  16292.874298 -18015.877350    -36.307049
PC36  -3915.269284  23912.671690  13865.699954   -783.720122
PC37 -16734.250480 -13553.680151  17781.814092   -877.687738
PC38  -7268.298491  32111.852257 -26227.300605    183.789406
PC39 -18004.161780  20028.786025  32393.324225     33.715163
PC40 -24573.851975  33295.082970  -8486.299366    210.441706
PC41  -3145.040973 -17780.529776 -21238.126775   -921.199580
PC42  22430.749890 -14226.995938   8570.377589   -956.746265
PC43   7284.603312 -14540.891895  22673.377682   -965.955762
PC44  26537.398939   8329.915756  -2443.509910    439.196558
PC45   9165.567437  26160.110949  -3096.968116    579.589588
PC46 -14341.801823   8166.612629  22507.770217     29.793589
PE01  -8548.916558 -20655.938136  19413.635547   -500.066561
PE02   8636.331631  20519.492826 -19491.896000    254.921480
PE03  16047.365837  11466.566736  22059.387255   -487.427152
PE04 -28170.877132   1905.243658  -8887.223080   -882.403465
PE05  -5712.391327  18343.848876  22512.708972   -240.111826
PE07  23873.837217 -14454.257602  -9853.631605   -598.326104
PE08  28228.035598  -2363.524045   8564.137387   5918.112439
PE09 -23717.511614  14585.787893  10061.617624   5490.922134
PE11 -13410.485172   9452.553073 -24644.477245   5228.006601
PE12 -23933.860098  -8955.595905 -14934.081690   4949.955180
PE13  13760.906657  -8976.018899  24625.481789    422.832315
PE14  25331.456820  -1762.071703    -52.086792  -1612.391414
PE15  23938.499078   8948.766629  14934.426389    785.528282
PE18 -26205.146438  12079.504826 -12857.562301  -1771.226543
PE19 -13628.409503 -12697.904224 -23005.639701    407.572548
PE21   4053.894411 -29041.938988   4062.831552   -694.893183
PE24 -15484.824354  20136.576953  15173.099765  -1182.793230
PE25  -4227.977979  29043.046900  -3812.891968   -550.784923
PE26  -5263.366591 -22017.183178  19082.805417   1204.859371
PE27  14989.524320 -21104.391933 -14354.624853   -147.054921
PE30  16858.272284    666.304553 -24322.175692   2522.964766
PE31 -17034.997598    796.497765  24208.621190   -487.046872
PE33 -19976.978596 -21557.597840   3540.707137   -463.494362
PE36   4459.654515  21544.614561 -19796.093739   -278.997668
PG01  19740.191087  10438.906315  14362.208397    533.257928
PG02 -13449.840698 -22016.192095   6775.853602   -638.456808
PG03  15547.189612    720.334863  21404.098630   -332.509262
PG04  26077.447833   1042.011637   5135.574232   -203.362026
PG05  -9227.508800 -15263.294906 -19797.120033    -58.382114
PG06  -1434.740752 -20397.190294  16981.280596     99.353498
PG07  14913.792006  -5158.297112 -21053.293824    265.910156
PG08  20641.830037   7479.650511 -15181.908238    -40.923277
PG09  24591.873346  -8083.951939  -6082.682373   -361.883438
PG10 -11583.174093  23566.880064  -2622.518672   -228.556172
PG11 -10649.836633 -23496.112037   6347.019159     21.229187
PG12 -14887.318458  -3078.112907  21514.892871   -114.670096
PG13 -13575.812470 -13041.672625 -18946.572089    202.743099
PG14  12720.053337 -23137.390455  -2588.538806    -23.149504
PG15 -21670.651371  -5850.207471 -14846.741326   -112.381631
PG16   4644.869431  18479.597205 -18554.025631   -410.641622
PG17  15592.776645 -12931.347425  17624.141183    522.241300
PG18 -13526.466284   6855.459442 -21820.225880    307.291897
PG19   6557.167528 -14328.038226  21085.712810     68.691292
PG20  -3027.556725 -23764.080309 -11773.096694    518.530824
PG21  20943.971105  15312.704509   7603.220924    148.468025
PG22  13444.476633   9335.535181  21116.636442   -484.091664
PG23 -16079.180602  16425.423019 -13261.553479     42.514284
PG24 -21200.284297 -12841.952132   9812.626007    256.844623
PG25 -17145.644757   8700.421958  17942.271605    227.875670
PG26  -3324.350296  25182.673555  -7291.731882    147.130872
PG27  11103.428967  12738.094352 -20764.472335   -209.031672
PG28   8907.508251 -24684.528830   5297.782172    478.445847
PG29 -26189.340923   3538.759623  -3025.086944   -429.315121
PG30   6663.714599 -15872.500278 -20099.088420   -484.320546
PG31   2576.707997  21464.631551  15002.414598   -146.054125
PG32 -11251.671078  14986.395552  18866.457527    -12.549958
PR01 -13307.142093  17354.532837  13131.831362     86.999140
PR02   5054.830217   9724.993815  23064.768494    497.401297
PR03  18610.455064  -2793.250743  17285.206876     45.065534
PR04  21531.084347 -13553.051959   1954.758278    110.416207
PR05  12655.165918 -16768.938068 -14484.668276     81.061406
PR07 -18892.498188   3265.949216 -16767.051415    -40.507267
PR08 -21454.748521  13648.440071  -1780.232329    -61.583847
PR09  -7113.613945 -22291.418498  10090.494486     19.372548
PR11  -8971.960769  11141.956565  21136.551238     49.682187
PR12  -1661.555239  24261.092762   7700.488058    271.842417
PR13   6598.327249  22836.278848  -9263.964708    -62.416189
PR14  11153.907868   7443.172884 -21685.500214     70.152616
PR15   9026.095564 -11694.569382 -20770.268481    100.721976
PR16    473.844885 -24752.391689  -6440.619387    -23.563227
PR17  23383.332768   9346.512691   3913.916583    468.077078
PR18  17659.714155   -519.182470  18434.318524     94.503945
PR19   3785.909152  -9675.854239  23297.950643   -163.947071
PR20 -15280.054445 -14982.733437  13866.550837    -57.928056
PR21 -23375.430311  -8820.330802  -5236.668287   -248.402203
PR22 -16877.544105   1072.865726 -19072.586432   -140.227215
PR24  16002.071914  14886.870074 -13113.277875     63.610339
EOF
